start=new Date('2022-01-07T00:00:00.000Z').valueOf();
sats=[{"MEAN_MOTION_DDOT":"0.0000000000000","FILE":"3265870","APOAPSIS":"548.778","OBJECT_NAME":"STARLINK-1732","MEAN_ANOMALY":"263.3124","PERIAPSIS":"545.651","GP_ID":"193353791","MEAN_MOTION_DOT":"0.00001068","LAUNCH_DATE":"2020-10-06","TLE_LINE1":"1 46584U 20070BE  22006.81397121  .00001068  00000-0  90604-4 0  9996","TLE_LINE2":"2 46584  53.0555 153.0643 0002257  96.8122 263.3124 15.06399699 70250","NORAD_CAT_ID":"46584","ARG_OF_PERICENTER":"96.8122","RA_OF_ASC_NODE":"153.0643","BSTAR":"0.00009060400000","EPOCH":"2022-01-06T19:32:07.112544","RCS_SIZE":"LARGE","REV_AT_EPOCH":"7025","CLASSIFICATION_TYPE":"U","PERIOD":"95.592","TIME_SYSTEM":"UTC","MEAN_MOTION":"15.06399699","COUNTRY_CODE":"US","SEMIMAJOR_AXIS":"6925.349","REF_FRAME":"TEME","OBJECT_TYPE":"PAYLOAD","ECCENTRICITY":"0.00022570","DECAY_DATE":null,"MEAN_ELEMENT_THEORY":"SGP4","INCLINATION":"53.0555","EPHEMERIS_TYPE":"0","SITE":"AFETR","CENTER_NAME":"EARTH","ELEMENT_SET_NO":"999","OBJECT_ID":"2020-070BE"},{"FILE":"3265870","APOAPSIS":"548.686","MEAN_MOTION_DDOT":"0.0000000000000","PERIAPSIS":"545.783","MEAN_ANOMALY":"266.4442","OBJECT_NAME":"STARLINK-1736","GP_ID":"193354041","MEAN_MOTION_DOT":"-0.00001354","LAUNCH_DATE":"2020-10-06","TLE_LINE1":"1 46585U 20070BF  22006.63337468 -.00001354  00000-0 -71999-4 0  9991","TLE_LINE2":"2 46585  53.0538 153.8895 0002096  93.6786 266.4442 15.06393121 70229","BSTAR":"-0.00007199900000","RA_OF_ASC_NODE":"153.8895","EPOCH":"2022-01-06T15:12:03.572352","NORAD_CAT_ID":"46585","ARG_OF_PERICENTER":"93.6786","REV_AT_EPOCH":"7022","RCS_SIZE":"LARGE","PERIOD":"95.593","TIME_SYSTEM":"UTC","CLASSIFICATION_TYPE":"U","OBJECT_TYPE":"PAYLOAD","ECCENTRICITY":"0.00020960","COUNTRY_CODE":"US","MEAN_MOTION":"15.06393121","SEMIMAJOR_AXIS":"6925.370","REF_FRAME":"TEME","MEAN_ELEMENT_THEORY":"SGP4","INCLINATION":"53.0538","DECAY_DATE":null,"ELEMENT_SET_NO":"999","SITE":"AFETR","CENTER_NAME":"EARTH","EPHEMERIS_TYPE":"0","OBJECT_ID":"2020-070BF"},{"MEAN_MOTION_DOT":"-0.00000519","GP_ID":"193354292","MEAN_ANOMALY":"266.1227","PERIAPSIS":"545.847","OBJECT_NAME":"STARLINK-1737","APOAPSIS":"548.562","FILE":"3265870","MEAN_MOTION_DDOT":"0.0000000000000","TLE_LINE2":"2 46586  53.0544 153.9389 0001960  93.9986 266.1227 15.06402982 70224","TLE_LINE1":"1 46586U 20070BG  22006.62230690 -.00000519  00000-0 -15897-4 0  9997","LAUNCH_DATE":"2020-10-06","ECCENTRICITY":"0.00019600","OBJECT_TYPE":"PAYLOAD","REF_FRAME":"TEME","SEMIMAJOR_AXIS":"6925.339","COUNTRY_CODE":"US","MEAN_MOTION":"15.06402982","TIME_SYSTEM":"UTC","PERIOD":"95.592","CLASSIFICATION_TYPE":"U","REV_AT_EPOCH":"7022","RCS_SIZE":"LARGE","EPOCH":"2022-01-06T14:56:07.316160","BSTAR":"-0.00001589700000","RA_OF_ASC_NODE":"153.9389","ARG_OF_PERICENTER":"93.9986","NORAD_CAT_ID":"46586","OBJECT_ID":"2020-070BG","SITE":"AFETR","ELEMENT_SET_NO":"999","CENTER_NAME":"EARTH","EPHEMERIS_TYPE":"0","INCLINATION":"53.0544","MEAN_ELEMENT_THEORY":"SGP4","DECAY_DATE":null},{"DECAY_DATE":null,"MEAN_ELEMENT_THEORY":"SGP4","INCLINATION":"53.0555","EPHEMERIS_TYPE":"0","CENTER_NAME":"EARTH","SITE":"AFETR","ELEMENT_SET_NO":"999","OBJECT_ID":"2020-070BJ","NORAD_CAT_ID":"46588","ARG_OF_PERICENTER":"92.6201","RA_OF_ASC_NODE":"153.1130","BSTAR":"0.00009282300000","EPOCH":"2022-01-06T19:16:11.887104","RCS_SIZE":"LARGE","REV_AT_EPOCH":"7025","CLASSIFICATION_TYPE":"U","PERIOD":"95.592","TIME_SYSTEM":"UTC","MEAN_MOTION":"15.06400315","COUNTRY_CODE":"US","REF_FRAME":"TEME","SEMIMAJOR_AXIS":"6925.348","OBJECT_TYPE":"PAYLOAD","ECCENTRICITY":"0.00019620","LAUNCH_DATE":"2020-10-06","TLE_LINE1":"1 46588U 20070BJ  22006.80291536  .00001101  00000-0  92823-4 0  9995","TLE_LINE2":"2 46588  53.0555 153.1130 0001962  92.6201 267.5013 15.06400315 70251","MEAN_MOTION_DDOT":"0.0000000000000","FILE":"3265870","APOAPSIS":"548.571","OBJECT_NAME":"STARLINK-1746","MEAN_ANOMALY":"267.5013","PERIAPSIS":"545.854","GP_ID":"193355043","MEAN_MOTION_DOT":"0.00001101"},{"OBJECT_ID":"2020-070BK","SITE":"AFETR","ELEMENT_SET_NO":"999","CENTER_NAME":"EARTH","EPHEMERIS_TYPE":"0","INCLINATION":"53.0545","MEAN_ELEMENT_THEORY":"SGP4","DECAY_DATE":null,"ECCENTRICITY":"0.00019660","OBJECT_TYPE":"PAYLOAD","REF_FRAME":"TEME","SEMIMAJOR_AXIS":"6925.355","MEAN_MOTION":"15.06398027","COUNTRY_CODE":"US","TIME_SYSTEM":"UTC","PERIOD":"95.592","CLASSIFICATION_TYPE":"U","REV_AT_EPOCH":"7024","RCS_SIZE":"LARGE","EPOCH":"2022-01-06T19:05:35.552832","RA_OF_ASC_NODE":"153.1542","BSTAR":"-0.00004867600000","ARG_OF_PERICENTER":"83.2226","NORAD_CAT_ID":"46589","TLE_LINE2":"2 46589  53.0545 153.1542 0001966  83.2226 276.8987 15.06398027 70243","TLE_LINE1":"1 46589U 20070BK  22006.79555038 -.00001007  00000-0 -48676-4 0  9998","LAUNCH_DATE":"2020-10-06","MEAN_MOTION_DOT":"-0.00001007","GP_ID":"193353291","MEAN_ANOMALY":"276.8987","PERIAPSIS":"545.858","OBJECT_NAME":"STARLINK-1749","FILE":"3265870","APOAPSIS":"548.581","MEAN_MOTION_DDOT":"0.0000000000000"},{"CLASSIFICATION_TYPE":"U","PERIOD":"93.184","TIME_SYSTEM":"UTC","COUNTRY_CODE":"US","MEAN_MOTION":"15.45327320","REF_FRAME":"TEME","SEMIMAJOR_AXIS":"6808.553","OBJECT_TYPE":"PAYLOAD","ECCENTRICITY":"0.00024810","NORAD_CAT_ID":"46590","ARG_OF_PERICENTER":"55.3420","BSTAR":"0.00071326000000","RA_OF_ASC_NODE":"60.6880","EPOCH":"2022-01-06T10:12:07.553088","RCS_SIZE":"LARGE","REV_AT_EPOCH":"7151","OBJECT_ID":"2020-070BL","DECAY_DATE":null,"MEAN_ELEMENT_THEORY":"SGP4","INCLINATION":"53.0563","EPHEMERIS_TYPE":"0","ELEMENT_SET_NO":"999","SITE":"AFETR","CENTER_NAME":"EARTH","OBJECT_NAME":"STARLINK-1754","MEAN_ANOMALY":"304.7820","PERIAPSIS":"428.729","GP_ID":"193324389","MEAN_MOTION_DOT":"0.00034279","MEAN_MOTION_DDOT":"0.0000000000000","FILE":"3265629","APOAPSIS":"432.108","TLE_LINE1":"1 46590U 20070BL  22006.42508742  .00034279  00000-0  71326-3 0  9992","TLE_LINE2":"2 46590  53.0563  60.6880 0002481  55.3420 304.7820 15.45327320 71510","LAUNCH_DATE":"2020-10-06"},{"PERIAPSIS":"545.778","MEAN_ANOMALY":"266.9116","OBJECT_NAME":"STARLINK-1755","MEAN_MOTION_DOT":"-0.00000929","GP_ID":"193354793","APOAPSIS":"548.729","FILE":"3265870","MEAN_MOTION_DDOT":"0.0000000000000","TLE_LINE1":"1 46591U 20070BM  22006.71814783 -.00000929  00000-0 -43497-4 0  9996","TLE_LINE2":"2 46591  53.0532 153.5113 0002131  93.2117 266.9116 15.06386982 69299","LAUNCH_DATE":"2020-10-06","TIME_SYSTEM":"UTC","PERIOD":"95.593","CLASSIFICATION_TYPE":"U","ECCENTRICITY":"0.00021310","OBJECT_TYPE":"PAYLOAD","REF_FRAME":"TEME","SEMIMAJOR_AXIS":"6925.388","COUNTRY_CODE":"US","MEAN_MOTION":"15.06386982","EPOCH":"2022-01-06T17:14:07.972512","RA_OF_ASC_NODE":"153.5113","BSTAR":"-0.00004349700000","ARG_OF_PERICENTER":"93.2117","NORAD_CAT_ID":"46591","REV_AT_EPOCH":"6929","RCS_SIZE":"LARGE","OBJECT_ID":"2020-070BM","INCLINATION":"53.0532","MEAN_ELEMENT_THEORY":"SGP4","DECAY_DATE":null,"ELEMENT_SET_NO":"999","SITE":"AFETR","CENTER_NAME":"EARTH","EPHEMERIS_TYPE":"0"},{"NORAD_CAT_ID":"46671","ARG_OF_PERICENTER":"55.9565","BSTAR":"-0.00003252600000","RA_OF_ASC_NODE":"242.5877","EPOCH":"2022-01-06T22:08:41.219520","RCS_SIZE":"LARGE","REV_AT_EPOCH":"6754","CLASSIFICATION_TYPE":"U","PERIOD":"95.593","TIME_SYSTEM":"UTC","COUNTRY_CODE":"US","MEAN_MOTION":"15.06392420","REF_FRAME":"TEME","SEMIMAJOR_AXIS":"6925.372","OBJECT_TYPE":"PAYLOAD","ECCENTRICITY":"0.00023340","DECAY_DATE":null,"MEAN_ELEMENT_THEORY":"SGP4","INCLINATION":"53.0541","EPHEMERIS_TYPE":"0","ELEMENT_SET_NO":"999","SITE":"AFETR","CENTER_NAME":"EARTH","OBJECT_ID":"2020-073B","MEAN_MOTION_DDOT":"0.0000000000000","FILE":"3265870","APOAPSIS":"548.853","OBJECT_NAME":"STARLINK-1715","PERIAPSIS":"545.620","MEAN_ANOMALY":"304.1645","GP_ID":"193353549","MEAN_MOTION_DOT":"-0.00000766","LAUNCH_DATE":"2020-10-18","TLE_LINE1":"1 46671U 20073B   22006.92269930 -.00000766  00000-0 -32526-4 0  9999","TLE_LINE2":"2 46671  53.0541 242.5877 0002334  55.9565 304.1645 15.06392420 67543"},{"LAUNCH_DATE":"2020-10-18","TLE_LINE2":"2 46672  53.0533 237.6963 0001903  69.0618 291.0575 15.06389991 67615","TLE_LINE1":"1 46672U 20073C   22006.89645779  .00000114  00000-0  26571-4 0  9993","MEAN_MOTION_DDOT":"0.0000000000000","APOAPSIS":"548.562","FILE":"3265870","MEAN_MOTION_DOT":"0.00000114","GP_ID":"193354801","OBJECT_NAME":"STARLINK-1716","PERIAPSIS":"545.926","MEAN_ANOMALY":"291.0575","EPHEMERIS_TYPE":"0","CENTER_NAME":"EARTH","SITE":"AFETR","ELEMENT_SET_NO":"999","DECAY_DATE":null,"INCLINATION":"53.0533","MEAN_ELEMENT_THEORY":"SGP4","OBJECT_ID":"2020-073C","RCS_SIZE":"LARGE","REV_AT_EPOCH":"6761","ARG_OF_PERICENTER":"69.0618","NORAD_CAT_ID":"46672","EPOCH":"2022-01-06T21:30:53.953056","BSTAR":"0.00002657100000","RA_OF_ASC_NODE":"237.6963","SEMIMAJOR_AXIS":"6925.379","REF_FRAME":"TEME","MEAN_MOTION":"15.06389991","COUNTRY_CODE":"US","ECCENTRICITY":"0.00019030","OBJECT_TYPE":"PAYLOAD","CLASSIFICATION_TYPE":"U","TIME_SYSTEM":"UTC","PERIOD":"95.593"},{"MEAN_MOTION_DDOT":"0.0000000000000","FILE":"3265870","APOAPSIS":"548.639","GP_ID":"193354551","MEAN_MOTION_DOT":"0.00001183","OBJECT_NAME":"STARLINK-1717","PERIAPSIS":"545.841","MEAN_ANOMALY":"298.8680","LAUNCH_DATE":"2020-10-18","TLE_LINE2":"2 46673  53.0545 252.5481 0002020  61.2511 298.8680 15.06391467 67407","TLE_LINE1":"1 46673U 20073D   22006.93282961  .00001183  00000-0  98313-4 0  9999","RCS_SIZE":"LARGE","REV_AT_EPOCH":"6740","NORAD_CAT_ID":"46673","ARG_OF_PERICENTER":"61.2511","RA_OF_ASC_NODE":"252.5481","BSTAR":"0.00009831300000","EPOCH":"2022-01-06T22:23:16.478304","MEAN_MOTION":"15.06391467","COUNTRY_CODE":"US","SEMIMAJOR_AXIS":"6925.375","REF_FRAME":"TEME","OBJECT_TYPE":"PAYLOAD","ECCENTRICITY":"0.00020200","CLASSIFICATION_TYPE":"U","PERIOD":"95.593","TIME_SYSTEM":"UTC","EPHEMERIS_TYPE":"0","ELEMENT_SET_NO":"999","SITE":"AFETR","CENTER_NAME":"EARTH","DECAY_DATE":null,"MEAN_ELEMENT_THEORY":"SGP4","INCLINATION":"53.0545","OBJECT_ID":"2020-073D"}];
